{"type": "FeatureCollection", "features": [ {"type": "Feature", "properties": {"norad_id": 59600, "name": "GSAT0227 (GALILEO 30)", "group": "gnss", "lat": 35.484391978549404, "lon": -103.84462919481587, "alt_km": 23209.522322549223, "timestamp": "2025-12-20T07:33:51.057243+00:00", "meta": {"OBJECT_NAME": "GSAT0227 (GALILEO 30)", "OBJECT_ID": "2024-079C", "EPOCH": "2025-12-19T12:12:51.636672", "MEAN_MOTION": 1.70474897, "ECCENTRICITY": 0.0002924, "INCLINATION": 55.0006, "RA_OF_ASC_NODE": 106.105, "ARG_OF_PERICENTER": 116.8359, "MEAN_ANOMALY": 243.1562, "EPHEMERIS_TYPE": 0, "CLASSIFICATION_TYPE": "U", "NORAD_CAT_ID": 59600, "ELEMENT_SET_NO": 999, "REV_AT_EPOCH": 1030, "BSTAR": 0, "MEAN_MOTION_DOT": -6e-08, "MEAN_MOTION_DDOT": 0}, "tle": {"line1": "1 59600U 24079C   25353.50893098 -.00000006  00000+0  00000+0 0  9997", "line2": "2 59600  55.0006 106.1050 0002924 116.8359 243.1562  1.70474897 10305"}}, "geometry": {"type": "Point", "coordinates": [-103.84462919481587, 35.484391978549404]}}, {"type": "Feature", "properties": {"norad_id": 61182, "name": "GSAT0232 (GALILEO 32)", "group": "gnss", "lat": -24.85802747165386, "lon": -152.51995496459637, "alt_km": 23228.291125410524, "timestamp": "2025-12-20T07:33:51.057255+00:00", "meta": {"OBJECT_NAME": "GSAT0232 (GALILEO 32)", "OBJECT_ID": "2024-167A", "EPOCH": "2025-12-18T08:17:33.319392", "MEAN_MOTION": 1.70473695, "ECCENTRICITY": 0.0001893, "INCLINATION": 55.239, "RA_OF_ASC_NODE": 226.2771, "ARG_OF_PERICENTER": 209.3432, "MEAN_ANOMALY": 351.1487, "EPHEMERIS_TYPE": 0, "CLASSIFICATION_TYPE": "U", "NORAD_CAT_ID": 61182, "ELEMENT_SET_NO": 999, "REV_AT_EPOCH": 779, "BSTAR": 0, "MEAN_MOTION_DOT": 6.2e-07, "MEAN_MOTION_DDOT": 0}, "tle": {"line1": "1 61182U 24167A   25352.34552453  .00000062  00000+0  00000+0 0  9992", "line2": "2 61182  55.2390 226.2771 0001893 209.3432 351.1487  1.70473695  7799"}}, "geometry": {"type": "Point", "coordinates": [-152.51995496459637, -24.85802747165386]}}, {"type": "Feature", "properties": {"norad_id": 61183, "name": "GSAT0226 (GALILEO 31)", "group": "gnss", "lat": 54.41472898242255, "lon": -57.81238171281306, "alt_km": 23213.017166194222, "timestamp": "2025-12-20T07:33:51.057266+00:00", "meta": {"OBJECT_NAME": "GSAT0226 (GALILEO 31)", "OBJECT_ID": "2024-167B", "EPOCH": "2025-12-19T08:05:33.318816", "MEAN_MOTION": 1.70473764, "ECCENTRICITY": 0.0001078, "INCLINATION": 55.2375, "RA_OF_ASC_NODE": 226.2553, "ARG_OF_PERICENTER": 106.8002, "MEAN_ANOMALY": 94.9592, "EPHEMERIS_TYPE": 0, "CLASSIFICATION_TYPE": "U", "NORAD_CAT_ID": 61183, "ELEMENT_SET_NO": 999, "REV_AT_EPOCH": 778, "BSTAR": 0, "MEAN_MOTION_DOT": 6.7e-07, "MEAN_MOTION_DDOT": 0}, "tle": {"line1": "1 61183U 24167B   25353.33719119  .00000067  00000+0  00000+0 0  9992", "line2": "2 61183  55.2375 226.2553 0001078 106.8002  94.9592  1.70473764  7785"}}, "geometry": {"type": "Point", "coordinates": [-57.81238171281306, 54.41472898242255]}}, {"type": "Feature", "properties": {"norad_id": 61186, "name": "BEIDOU-3 M25 (C47)", "group": "gnss", "lat": 36.069813540622114, "lon": 97.31495040559513, "alt_km": 21538.492300667494, "timestamp": "2025-12-20T07:33:51.057279+00:00", "meta": {"OBJECT_NAME": "BEIDOU-3 M25 (C47)", "OBJECT_ID": "2024-168B", "EPOCH": "2025-12-19T20:26:35.565792", "MEAN_MOTION": 1.86230275, "ECCENTRICITY": 0.00054526, "INCLINATION": 54.6358, "RA_OF_ASC_NODE": 308.4741, "ARG_OF_PERICENTER": 299.4214, "MEAN_ANOMALY": 243.6633, "EPHEMERIS_TYPE": 0, "CLASSIFICATION_TYPE": "U", "NORAD_CAT_ID": 61186, "ELEMENT_SET_NO": 999, "REV_AT_EPOCH": 844, "BSTAR": 0, "MEAN_MOTION_DOT": -7.4e-07, "MEAN_MOTION_DDOT": 0}, "tle": {"line1": "1 61186U 24168B   25353.85180053 -.00000074  00000+0  00000+0 0  9991", "line2": "2 61186  54.6358 308.4741 0005452 299.4214 243.6633  1.86230275  8446"}}, "geometry": {"type": "Point", "coordinates": [97.31495040559513, 36.069813540622114]}}, {"type": "Feature", "properties": {"norad_id": 61187, "name": "BEIDOU-3 M27 (C49)", "group": "gnss", "lat": -54.6182871845682, "lon": -143.81853642183347, "alt_km": 21531.65264615867, "timestamp": "2025-12-20T07:33:51.057293+00:00", "meta": {"OBJECT_NAME": "BEIDOU-3 M27 (C49)", "OBJECT_ID": "2024-168C", "EPOCH": "2025-12-19T13:44:54.698784", "MEAN_MOTION": 1.8623043, "ECCENTRICITY": 0.0002515, "INCLINATION": 54.6314, "RA_OF_ASC_NODE": 308.4673, "ARG_OF_PERICENTER": 339.733, "MEAN_ANOMALY": 151.2797, "EPHEMERIS_TYPE": 0, "CLASSIFICATION_TYPE": "U", "NORAD_CAT_ID": 61187, "ELEMENT_SET_NO": 999, "REV_AT_EPOCH": 591, "BSTAR": 0, "MEAN_MOTION_DOT": -7.6e-07, "MEAN_MOTION_DDOT": 0}, "tle": {"line1": "1 61187U 24168C   25353.57285531 -.00000076  00000+0  00000+0 0  9990", "line2": "2 61187  54.6314 308.4673 0002515 339.7330 151.2797  1.86230430  5914"}}, "geometry": {"type": "Point", "coordinates": [-143.81853642183347, -54.6182871845682]}}, {"type": "Feature", "properties": {"norad_id": 62339, "name": "GPS BIII-7  (PRN 01)", "group": "gnss", "lat": -23.74559301820356, "lon": -36.58303653392597, "alt_km": 20152.937339332453, "timestamp": "2025-12-20T07:33:51.057307+00:00", "meta": {"OBJECT_NAME": "GPS BIII-7  (PRN 01)", "OBJECT_ID": "2024-242A", "EPOCH": "2025-12-18T08:46:28.895808", "MEAN_MOTION": 2.00568182, "ECCENTRICITY": 0.0012509, "INCLINATION": 54.922, "RA_OF_ASC_NODE": 341.5124, "ARG_OF_PERICENTER": 345.6877, "MEAN_ANOMALY": 17.1618, "EPHEMERIS_TYPE": 0, "CLASSIFICATION_TYPE": "U", "NORAD_CAT_ID": 62339, "ELEMENT_SET_NO": 999, "REV_AT_EPOCH": 763, "BSTAR": 0, "MEAN_MOTION_DOT": -8.5e-07, "MEAN_MOTION_DDOT": 0}, "tle": {"line1": "1 62339U 24242A   25352.36561222 -.00000085  00000+0  00000+0 0  9993", "line2": "2 62339  54.9220 341.5124 0012509 345.6877  17.1618  2.00568182  7636"}}, "geometry": {"type": "Point", "coordinates": [-36.58303653392597, -23.74559301820356]}}, {"type": "Feature", "properties": {"norad_id": 62850, "name": "NVS-02 (IRNSS-1K)", "group": "gnss", "lat": -20.72576209617024, "lon": -134.30822860244268, "alt_km": 15523.835094550472, "timestamp": "2025-12-20T07:33:51.057319+00:00", "meta": {"OBJECT_NAME": "NVS-02 (IRNSS-1K)", "OBJECT_ID": "2025-020A", "EPOCH": "2025-12-19T10:34:57.286848", "MEAN_MOTION": 2.17599926, "ECCENTRICITY": 0.7347349, "INCLINATION": 20.967, "RA_OF_ASC_NODE": 325.2345, "ARG_OF_PERICENTER": 30.5775, "MEAN_ANOMALY": 356.7086, "EPHEMERIS_TYPE": 0, "CLASSIFICATION_TYPE": "U", "NORAD_CAT_ID": 62850, "ELEMENT_SET_NO": 999, "REV_AT_EPOCH": 706, "BSTAR": 0.00012519, "MEAN_MOTION_DOT": 2.05e-06, "MEAN_MOTION_DDOT": 0}, "tle": {"line1": "1 62850U 25020A   25353.44094082  .00000205  00000+0  12519-3 0  9996", "line2": "2 62850  20.9670 325.2345 7347349  30.5775 356.7086  2.17599926  7063"}}, "geometry": {"type": "Point", "coordinates": [-134.30822860244268, -20.72576209617024]}}, {"type": "Feature", "properties": {"norad_id": 62876, "name": "QZS-6 (QZSS/PRN 200)", "group": "gnss", "lat": -0.05244658098297619, "lon": -66.84917265982342, "alt_km": 35779.806358222086, "timestamp": "2025-12-20T07:33:51.057331+00:00", "meta": {"OBJECT_NAME": "QZS-6 (QZSS/PRN 200)", "OBJECT_ID": "2025-023A", "EPOCH": "2025-12-19T20:26:26.289024", "MEAN_MOTION": 1.00272644, "ECCENTRICITY": 0.00014853, "INCLINATION": 0.0481, "RA_OF_ASC_NODE": 68.6694, "ARG_OF_PERICENTER": 209.7376, "MEAN_ANOMALY": 207.4378, "EPHEMERIS_TYPE": 0, "CLASSIFICATION_TYPE": "U", "NORAD_CAT_ID": 62876, "ELEMENT_SET_NO": 999, "REV_AT_EPOCH": 316, "BSTAR": 0, "MEAN_MOTION_DOT": -2.09e-06, "MEAN_MOTION_DDOT": 0}, "tle": {"line1": "1 62876U 25023A   25353.85169316 -.00000209  00000+0  00000+0 0  9998", "line2": "2 62876   0.0481  68.6694 0001485 209.7376 207.4378  1.00272644  3162"}}, "geometry": {"type": "Point", "coordinates": [-66.84917265982342, -0.05244658098297619]}}, {"type": "Feature", "properties": {"norad_id": 63130, "name": "COSMOS 2584 (704K)", "group": "gnss", "lat": -26.161069589909776, "lon": 65.66170891843053, "alt_km": 19140.993429900172, "timestamp": "2025-12-20T07:33:51.057367+00:00", "meta": {"OBJECT_NAME": "COSMOS 2584 (704K)", "OBJECT_ID": "2025-042A", "EPOCH": "2025-12-18T11:25:35.911776", "MEAN_MOTION": 2.13103072, "ECCENTRICITY": 0.00077091, "INCLINATION": 64.979, "RA_OF_ASC_NODE": 78.9506, "ARG_OF_PERICENTER": 218.5301, "MEAN_ANOMALY": 141.4378, "EPHEMERIS_TYPE": 0, "CLASSIFICATION_TYPE": "U", "NORAD_CAT_ID": 63130, "ELEMENT_SET_NO": 999, "REV_AT_EPOCH": 619, "BSTAR": 0, "MEAN_MOTION_DOT": -3.8e-07, "MEAN_MOTION_DDOT": 0}, "tle": {"line1": "1 63130U 25042A   25352.47611009 -.00000038  00000+0  00000+0 0  9991", "line2": "2 63130  64.9790  78.9506 0007709 218.5301 141.4378  2.13103072  6191"}}, "geometry": {"type": "Point", "coordinates": [65.66170891843053, -26.161069589909776]}}, {"type": "Feature", "properties": {"norad_id": 64202, "name": "GPS BIII-8  (PRN 21)", "group": "gnss", "lat": 16.509714987916915, "lon": -153.57111702805477, "alt_km": 20194.28610731293, "timestamp": "2025-12-20T07:33:51.057389+00:00", "meta": {"OBJECT_NAME": "GPS BIII-8  (PRN 21)", "OBJECT_ID": "2025-116A", "EPOCH": "2025-12-18T15:16:52.654656", "MEAN_MOTION": 2.00558053, "ECCENTRICITY": 0.00059082, "INCLINATION": 55.1097, "RA_OF_ASC_NODE": 38.4029, "ARG_OF_PERICENTER": 309.1838, "MEAN_ANOMALY": 78.7026, "EPHEMERIS_TYPE": 0, "CLASSIFICATION_TYPE": "U", "NORAD_CAT_ID": 64202, "ELEMENT_SET_NO": 999, "REV_AT_EPOCH": 425, "BSTAR": 0, "MEAN_MOTION_DOT": -7e-07, "MEAN_MOTION_DDOT": 0}, "tle": {"line1": "1 64202U 25116A   25352.63672054 -.00000070  00000+0  00000+0 0  9995", "line2": "2 64202  55.1097  38.4029 0005908 309.1838  78.7026  2.00558053  4252"}}, "geometry": {"type": "Point", "coordinates": [-153.57111702805477, 16.509714987916915]}}]}